FLP             Epoch 2022/08/25 21:37 UTC OPM_of_University_Stuttgart          
1 42831U 17042G   22237.90073069 +.00000761  00000-0 +76438-4 0    01
2 42831  97.4177  88.3006 0015017 130.6923 323.6574 14.91894549278458
